{
  "type": "FeatureCollection",
  "features": [
    {
      "type": "Feature",
      "properties": {
        "norad_id": 41890,
        "name": "CYGFM07",
        "group": "weather",
        "lat": 30.623635226235436,
        "lon": 94.21185277333765,
        "alt_km": 415.8619089774693,
        "timestamp": "2025-12-10T11:33:53.034255+00:00",
        "meta_object_name": "CYGFM07",
        "meta_object_id": "2016-078G",
        "meta_epoch": "2025-12-09T13:39:05.039712",
        "meta_mean_motion": 15.4979977,
        "meta_eccentricity": 0.0009553,
        "meta_inclination": 34.9481,
        "meta_ra_of_asc_node": 42.2409,
        "meta_arg_of_pericenter": 187.8232,
        "meta_mean_anomaly": 172.2342,
        "meta_ephemeris_type": 0,
        "meta_classification_type": "U",
        "meta_norad_cat_id": 41890,
        "meta_element_set_no": 999,
        "meta_rev_at_epoch": 49946,
        "meta_bstar": 0.00050008,
        "meta_mean_motion_dot": 0.00028813,
        "meta_mean_motion_ddot": 0,
        "tle_line1": "1 41890U 16078G   25343.56880833  .00028813  00000+0  50008-3 0  9999",
        "tle_line2": "2 41890  34.9481  42.2409 0009553 187.8232 172.2342 15.49799770499468"
      },
      "geometry": {
        "type": "Point",
        "coordinates": [
          94.21185277333765,
          30.623635226235436
        ]
      }
    },
    {
      "type": "Feature",
      "properties": {
        "norad_id": 41891,
        "name": "CYGFM03",
        "group": "weather",
        "lat": -34.1378139387731,
        "lon": -65.65176539901127,
        "alt_km": 417.95649993565894,
        "timestamp": "2025-12-10T11:33:53.034265+00:00",
        "meta_object_name": "CYGFM03",
        "meta_object_id": "2016-078H",
        "meta_epoch": "2025-12-09T14:21:23.159808",
        "meta_mean_motion": 15.49703336,
        "meta_eccentricity": 0.000885,
        "meta_inclination": 34.9436,
        "meta_ra_of_asc_node": 43.965,
        "meta_arg_of_pericenter": 175.1445,
        "meta_mean_anomaly": 184.9364,
        "meta_ephemeris_type": 0,
        "meta_classification_type": "U",
        "meta_norad_cat_id": 41891,
        "meta_element_set_no": 999,
        "meta_rev_at_epoch": 49944,
        "meta_bstar": 0.00050549,
        "meta_mean_motion_dot": 0.00029019,
        "meta_mean_motion_ddot": 0,
        "tle_line1": "1 41891U 16078H   25343.59818472  .00029019  00000+0  50549-3 0  9992",
        "tle_line2": "2 41891  34.9436  43.9650 0008850 175.1445 184.9364 15.49703336499445"
      },
      "geometry": {
        "type": "Point",
        "coordinates": [
          -65.65176539901127,
          -34.1378139387731
        ]
      }
    },
    {
      "type": "Feature",
      "properties": {
        "norad_id": 43010,
        "name": "FENGYUN 3D",
        "group": "weather",
        "lat": -5.712319929401777,
        "lon": -48.33479680802599,
        "alt_km": 830.5982178693412,
        "timestamp": "2025-12-10T11:33:53.034276+00:00",
        "meta_object_name": "FENGYUN 3D",
        "meta_object_id": "2017-072A",
        "meta_epoch": "2025-12-10T04:49:33.784608",
        "meta_mean_motion": 14.19682172,
        "meta_eccentricity": 7.89e-05,
        "meta_inclination": 98.9892,
        "meta_ra_of_asc_node": 310.473,
        "meta_arg_of_pericenter": 189.276,
        "meta_mean_anomaly": 170.8401,
        "meta_ephemeris_type": 0,
        "meta_classification_type": "U",
        "meta_norad_cat_id": 43010,
        "meta_element_set_no": 999,
        "meta_rev_at_epoch": 41817,
        "meta_bstar": 9.244e-05,
        "meta_mean_motion_dot": 1.49e-06,
        "meta_mean_motion_ddot": 0,
        "tle_line1": "1 43010U 17072A   25344.20108547  .00000149  00000+0  92440-4 0  9996",
        "tle_line2": "2 43010  98.9892 310.4730 0000789 189.2760 170.8401 14.19682172418173"
      },
      "geometry": {
        "type": "Point",
        "coordinates": [
          -48.33479680802599,
          -5.712319929401777
        ]
      }
    },
    {
      "type": "Feature",
      "properties": {
        "norad_id": 43013,
        "name": "NOAA 20 (JPSS-1)",
        "group": "weather",
        "lat": 31.46816122126395,
        "lon": 106.2181860034183,
        "alt_km": 824.3187720014648,
        "timestamp": "2025-12-10T11:33:53.034287+00:00",
        "meta_object_name": "NOAA 20 (JPSS-1)",
        "meta_object_id": "2017-073A",
        "meta_epoch": "2025-12-10T02:24:41.917824",
        "meta_mean_motion": 14.1952455,
        "meta_eccentricity": 0.0002144,
        "meta_inclination": 98.7596,
        "meta_ra_of_asc_node": 280.4262,
        "meta_arg_of_pericenter": 91.0486,
        "meta_mean_anomaly": 269.0936,
        "meta_ephemeris_type": 0,
        "meta_classification_type": "U",
        "meta_norad_cat_id": 43013,
        "meta_element_set_no": 999,
        "meta_rev_at_epoch": 41764,
        "meta_bstar": 9.863e-05,
        "meta_mean_motion_dot": 1.64e-06,
        "meta_mean_motion_ddot": 0,
        "tle_line1": "1 43013U 17073A   25344.10048516  .00000164  00000+0  98630-4 0  9992",
        "tle_line2": "2 43013  98.7596 280.4262 0002144  91.0486 269.0936 14.19524550417643"
      },
      "geometry": {
        "type": "Point",
        "coordinates": [
          106.2181860034183,
          31.46816122126395
        ]
      }
    },
    {
      "type": "Feature",
      "properties": {
        "norad_id": 43226,
        "name": "GOES 17",
        "group": "weather",
        "lat": 0.43635376411718185,
        "lon": 163.39347811322295,
        "alt_km": 35791.56029081579,
        "timestamp": "2025-12-10T11:33:53.034299+00:00",
        "meta_object_name": "GOES 17",
        "meta_object_id": "2018-022A",
        "meta_epoch": "2025-12-10T04:23:38.620032",
        "meta_mean_motion": 1.00271635,
        "meta_eccentricity": 0.0003375,
        "meta_inclination": 0.4535,
        "meta_ra_of_asc_node": 89.1426,
        "meta_arg_of_pericenter": 186.9356,
        "meta_mean_anomaly": 139.4998,
        "meta_ephemeris_type": 0,
        "meta_classification_type": "U",
        "meta_norad_cat_id": 43226,
        "meta_element_set_no": 999,
        "meta_rev_at_epoch": 2852,
        "meta_bstar": 0,
        "meta_mean_motion_dot": -1.79e-06,
        "meta_mean_motion_ddot": 0,
        "tle_line1": "1 43226U 18022A   25344.18308588 -.00000179  00000+0  00000+0 0  9995",
        "tle_line2": "2 43226   0.4535  89.1426 0003375 186.9356 139.4998  1.00271635 28527"
      },
      "geometry": {
        "type": "Point",
        "coordinates": [
          163.39347811322295,
          0.43635376411718185
        ]
      }
    },
    {
      "type": "Feature",
      "properties": {
        "norad_id": 43491,
        "name": "FENGYUN 2H",
        "group": "weather",
        "lat": -2.4106385288440797,
        "lon": -27.69559879432602,
        "alt_km": 35785.67452040433,
        "timestamp": "2025-12-10T11:33:53.034311+00:00",
        "meta_object_name": "FENGYUN 2H",
        "meta_object_id": "2018-050A",
        "meta_epoch": "2025-12-09T20:47:51.878688",
        "meta_mean_motion": 1.00271041,
        "meta_eccentricity": 0.0002944,
        "meta_inclination": 2.5434,
        "meta_ra_of_asc_node": 81.3538,
        "meta_arg_of_pericenter": 165.2045,
        "meta_mean_anomaly": 223.6196,
        "meta_ephemeris_type": 0,
        "meta_classification_type": "U",
        "meta_norad_cat_id": 43491,
        "meta_element_set_no": 999,
        "meta_rev_at_epoch": 2754,
        "meta_bstar": 0,
        "meta_mean_motion_dot": -1.27e-06,
        "meta_mean_motion_ddot": 0,
        "tle_line1": "1 43491U 18050A   25343.86657267 -.00000127  00000+0  00000+0 0  9998",
        "tle_line2": "2 43491   2.5434  81.3538 0002944 165.2045 223.6196  1.00271041 27544"
      },
      "geometry": {
        "type": "Point",
        "coordinates": [
          -27.69559879432602,
          -2.4106385288440797
        ]
      }
    },
    {
      "type": "Feature",
      "properties": {
        "norad_id": 43689,
        "name": "METOP-C",
        "group": "weather",
        "lat": -80.76987716693375,
        "lon": 112.59279693218777,
        "alt_km": 828.2854525721896,
        "timestamp": "2025-12-10T11:33:53.034322+00:00",
        "meta_object_name": "METOP-C",
        "meta_object_id": "2018-087A",
        "meta_epoch": "2025-12-10T03:31:35.551200",
        "meta_mean_motion": 14.21510271,
        "meta_eccentricity": 0.0001449,
        "meta_inclination": 98.6933,
        "meta_ra_of_asc_node": 41.9563,
        "meta_arg_of_pericenter": 46.7548,
        "meta_mean_anomaly": 313.375,
        "meta_ephemeris_type": 0,
        "meta_classification_type": "U",
        "meta_norad_cat_id": 43689,
        "meta_element_set_no": 999,
        "meta_rev_at_epoch": 36797,
        "meta_bstar": 0.00011893,
        "meta_mean_motion_dot": 2.17e-06,
        "meta_mean_motion_ddot": 0,
        "tle_line1": "1 43689U 18087A   25344.14693925  .00000217  00000+0  11893-3 0  9995",
        "tle_line2": "2 43689  98.6933  41.9563 0001449  46.7548 313.3750 14.21510271367978"
      },
      "geometry": {
        "type": "Point",
        "coordinates": [
          112.59279693218777,
          -80.76987716693375
        ]
      }
    }
  ]
}